#dP2020  7 23  0  0  0.00000000      97 __u+U IGS14 FIT  IAC
## 2115 345600.00000000   900.00000000 59053 0.0000000000000
+  121   C01C02C03C04C05C06C07C08C09C10C11C12C13C14C16C19C20
+        C21C22C23C24C25C26C27C28C29C30C32C33C34C35C36C37C38
+        C39C40C43C44C45C46E01E02E03E04E05E07E08E09E11E12E13
+        E14E15E18E19E21E24E25E26E27E30E31E33E36G01G02G03G04
+        G05G06G07G08G09G10G11G12G13G14G15G16G17G18G19G20G21
+        G22G23G24G25G26G27G28G29G30G31G32J01J02J03R01R02R03
+        R04R05R07R08R09R11R12R13R14R15R16R17R18R19R20R21R23
+        R24R26  0  0  0  0  0  0  0  0  0  0  0  0  0  0  0
++         0  0  0  0  0  0  0  0  0  0  0  0  0  0  0  0  0
++         0  0  0  0  0  0  0  0  0  0  0  0  0  0  0  0  0
++         0  0  0  0  0  0  0  0  0  0  0  0  0  0  0  0  0
++         0  0  0  0  0  0  0  0  0  0  0  0  0  0  0  0  0
++         0  0  0  0  0  0  0  0  0  0  0  0  0  0  0  0  0
++         0  0  0  0  0  0  0  0  0  0  0  0  0  0  0  0  0
++         0  0  0  0  0  0  0  0  0  0  0  0  0  0  0  0  0
++         0  0  0  0  0  0  0  0  0  0  0  0  0  0  0  0  0
%c M  cc GPS ccc cccc cccc cccc cccc ccccc ccccc ccccc ccccc
%c cc cc ccc ccc cccc cccc cccc cccc ccccc ccccc ccccc ccccc
%f  1.2500000  1.025000000  0.00000000000  0.000000000000000
%f  0.0000000  0.000000000  0.00000000000  0.000000000000000
%i    0    0    0    0      0      0      0      0         0
%i    0    0    0    0      0      0      0      0         0
/* INFORMATION & ANALYSIS CENTER (IAC)            FINAL DATA
/* S/V CLOCKS ARE ALIGNED TO GNSS TIME                      
/* G:C1WC2W R:C1PC2P E:C1XC5X C:C2IC6I J:C1CC2S             
/* PCV:IGS14_2113 OL/AL:FES2004  NONE     YN ORB:CoN CLK:CoN
*  2020 07 23  7 45  0.00000000
PC01 -34331.546706  24421.954305   -650.787683   -300.579386
PC02   4487.008109  41944.001108    756.643671    197.023659
PC03 -14857.399761  39446.259409   1139.100187    820.641540
PC04 -39631.546833  14361.088741    156.425932    -86.428225
PC05  21903.707229  36023.288581    867.375065   -681.430951
PC06 -21124.230156  36385.943833  -4875.023271    790.969295
PC07  -6984.660734  31169.940320 -27031.456140    138.223065
PC08 -17041.029133  18915.137220  33590.025634   -394.167103
PC09 -11457.429916  36380.712463 -18122.126975    694.929470
PC10   4295.654152  37144.698715 -18830.742955   -229.683424
PC11   4401.156825 -20192.135259 -18726.374051   -508.582242
PC12  19140.343982 -20056.938574  -3303.306486    441.618702
PC13  -1080.185074  22924.328612  35435.980562    557.545654
PC14  -3858.866359 -27483.622552  -3193.231873    709.208632
PC16 -18948.434756  37038.073735  -7381.399626   -596.627449
PC19   9927.969714  25379.672466  -5925.489794    483.889488
PC20  -2146.002306  25513.072571  11075.559940   -837.714751
PC21  13411.105583 -10456.268861 -22112.378141   -661.243067
PC22  16499.155459  10461.525784 -19908.918909   -769.724351
PC23 -26506.520925  -8741.162349      9.231210   -844.073084
PC24   5508.187060 -15229.942816  22728.374662   -758.756365
PC25 -15826.390461 -16573.162473  15915.794596   -695.734860
PC26  21896.981526  -5564.230114  16398.333080    765.023068
PC27 -22939.846058  14805.638179  -5831.305671    369.087965
PC28 -19593.596631  -1031.992011 -19840.990697   -192.438073
PC29   5452.997622  16009.507227  22186.697284    259.780671
PC30 -12273.711734  22395.485945  11264.126235    350.485635
PC32 -13374.735870  10521.297351  22129.634707   -877.363646
PC33 -10054.057998 -25372.046301   5891.266181   -796.936648
PC34  11871.324647 -22370.728135 -11708.488213   -895.241613
PC35  19537.547350    599.514334  19899.915375   -737.041965
PC36  15238.657561  16961.722447 -16049.169275   -876.934990
PC37 -22438.232734   4571.953125 -15917.760398   -876.843376
PC38 -15714.644019  21605.155521  32574.079134     90.465920
PC39 -16348.965739  38219.777538  -7371.440988     19.660186
PC40   -544.928848  34666.745121 -23847.666377     64.194393
PC43  -5150.222959 -16325.154354 -22042.646969   -294.619684
PC44  22479.043733 -15396.698482   5953.072358   -310.856357
PC45  26545.744647   8626.141960     32.469144    186.589096
PC46  -4740.597330  15346.997266 -22803.286041    722.944973
PE01  12645.613395  23556.772427 -12690.181499   -904.116954
PE02 -12722.642615 -23560.479651  12616.392245    149.240681
PE03  -2251.502922 -27073.577147  11779.249917   -323.632113
PE04  14112.579223  11811.349021 -23174.162521   -571.464066
PE05  11079.204721 -26628.051764  -6671.899276   -360.901774
PE07 -17843.651695  10623.798802  21098.013716   -412.697791
PE08 -14153.378108 -11465.757268  23341.844297   6145.664466
PE09  17638.098330 -10920.775011 -21113.514289   5987.671385
PE11  28350.370743  -8465.665013    593.147970   4289.633004
PE12  22658.386702   5485.022978  18226.373684   5692.586428
PE13 -28366.052515   8419.925691   -855.263821    402.511534
PE14  17076.441132  -1558.684830  16780.627474  -1094.062071
PE15 -22816.737554  -5194.798471 -18126.663477    858.982976
PE18 -20220.791066  -5597.460663 -24422.302696  -1197.576968
PE19    693.230649  27855.332184  -9977.785238     34.677694
PE21  -5376.837154  16753.085413 -23798.917322   -611.654971
PE24  20853.194723    337.872135  21002.688654   5336.280920
PE25   5503.716910 -16672.562417  23841.203847   -514.031760
PE26 -16881.258382  17190.514077  17188.740565   2927.971868
PE27 -20654.822553     52.236551 -21196.117392    171.543718
PE30 -23547.574388 -16988.682369  -5745.562536   3725.073225
PE31  23729.215781  16575.362590   6183.107648   -473.335267
PE33   3856.992407  15762.717028  24754.379623   -464.603705
PE36  17253.976478 -17091.319234 -16922.524709    530.472375
PG01  -9108.686326 -13832.578362 -21073.031422     28.140664
PG02 -14170.287960  14237.642963  17996.848566   -491.403465
PG03 -11889.661870 -23550.430926  -3616.700900   -248.164029
PG04  -4144.446786 -18735.585761  18361.006202   -115.818211
PG05  -3800.948519  18166.423347  18780.888176    -17.244945
PG06 -24370.622684   6586.925493   8370.014257   -306.689867
PG07 -24019.324141  -6587.573111  10217.484076   -333.596216
PG08   4498.404728 -24059.368666  -9973.411341    -41.921197
PG09 -13184.425031  -7949.273105  21592.711676   -258.303711
PG10  17781.581589   2888.472970 -19509.889381   -407.406633
PG11    932.715477 -18169.924372 -19930.549499   -213.354165
PG12   9874.641512  24420.275634  -4222.975471     90.137339
PG13 -12822.076128  22893.932002  -3856.997829     29.195582
PG14  18309.088684 -16288.780604  -9652.402847      3.461189
PG15  -1075.159400  24267.649177 -10607.070946   -215.644970
PG16   3127.396052 -19490.083587  17333.331866   -186.251399
PG17 -18310.201902   9195.386466 -16455.096635    300.093720
PG18  23930.706510   6336.758196   9657.202877    253.005146
PG19 -18989.357077  14939.352624 -11274.852979   -128.312493
PG20  20959.592380  12361.920718 -10993.971704    527.231138
PG21  24537.869033  -6992.893424  -6098.996769     27.012542
PG22  -7604.764748 -23086.058310 -10676.871418   -770.033956
PG23  19411.626327  11805.161188 -13786.764189     13.612906
PG24   7039.376072  14897.944234 -21083.428224    -16.053476
PG25  16896.884638  19909.290956   5324.292856     26.486757
PG26  12721.700835  -8880.638701  21522.204995    248.319407
PG27  12329.130881 -23315.290178    135.926005   -352.853403
PG28 -16465.611009  -2503.693881 -20073.524138    696.882317
PG29   9123.165816  12438.568655  21572.618255   -156.469812
PG30 -26674.285469    411.456723   -320.519800   -267.633067
PG31  23876.288609  -7171.867459   9748.233744    -57.409288
PG32  18186.656910 -10416.981004 -16140.874752    321.451274
PJ01 -26587.718681  25548.591220  25435.149883   -197.598396
PJ02 -25603.661872  15113.971651 -25433.946806     -1.556325
PJ03 -26592.277228  32617.618116   2682.343558     -0.168286
PR01   9732.567361 -10311.707336 -21204.441068     64.951085
PR02   1751.899392 -24904.308893  -5050.184046    437.565242
PR03  -6457.331663 -21452.820410  12195.110775     19.045161
PR04 -10701.638977  -5908.648757  22416.119321     57.285700
PR05  -9031.886033  12985.091455  20030.990619     54.563229
PR07   6607.096672  21185.662430 -12575.846443    -38.691929
PR08  10779.407737   5944.627873 -22288.110387    -53.630671
PR09   5504.915761  14229.001022 -20402.191081    144.916809
PR11  23004.365382   8199.543106   7288.393440    -31.491350
PR12  15365.483334  -2673.917914  20220.604241    149.413973
PR13  -1446.738773 -12614.356709  22113.792179    -41.547530
PR14 -17374.636128 -15216.067079  10868.686859     53.643660
PR15 -23021.082370  -8924.005212  -6394.887326    106.951271
PR16 -14769.176985   3610.601090 -20462.316392     -4.789188
PR17  -5197.814372  -9224.290595 -23205.140743    343.541328
PR18 -18704.145491   2294.003194 -17210.325567     43.258207
PR19 -22529.512403  11682.170247  -2537.593179   -103.585645
PR20 -12462.366089  15418.373347  16074.527317   -417.446309
PR21   6145.544133   8544.826383  23228.959725   -140.014078
PR23  20328.982910 -14691.679016  -4669.273491    320.455706
PR24  11547.434192 -15714.931500 -16442.750759      7.240254
PR26 -15937.073044  15895.969385  11974.800690   -365.339324
EOF
